[
    {
        "Altitude(m)": 622200.1499147104,
        "Argument of Periapsis(deg)": 0.0,
        "Eccentricity": 0.0,
        "Inclination(deg)": 60.0,
        "Latitude(deg)": -52.162656117448144,
        "Longitude(deg)": -67.63920432866583,
        "Mean Anomaly(deg)": -65.45449999999997,
        "RAAN(deg)": 80.0,
        "Satellite Name": "Test1 370",
        "Satellite Number": 370,
        "Semi-Major Axis(m)": 6980739.136638005,
        "Time(s)": 0
    },
    {
        "Altitude(m)": 622058.3176304122,
        "Argument of Periapsis(deg)": 0.00010418945913296404,
        "Eccentricity": 0.0,
        "Inclination(deg)": 60.0,
        "Latitude(deg)": -51.79940531767815,
        "Longitude(deg)": -66.87114500991181,
        "Mean Anomaly(deg)": -64.83439385453813,
        "RAAN(deg)": 79.99957995086025,
        "Satellite Name": "Test1 370",
        "Satellite Number": 370,
        "Semi-Major Axis(m)": 6980739.136638005,
        "Time(s)": 10
    }
]